<?xml version="1.0" encoding="UTF-8"?>
<ndm xmlns:xsi="http://www.w3.org/2001/XMLSchema-instance" xsi:noNamespaceSchemaLocation="https://sanaregistry.org/r/ndmxml_unqualified/ndmxml-2.0.0-master-2.0.xsd">
<omm id="CCSDS_OMM_VERS" version="2.0">
<header><CREATION_DATE/><ORIGINATOR/></header><body><segment><metadata><OBJECT_NAME>ORBCOMM FM20</OBJECT_NAME><OBJECT_ID>1998-046D</OBJECT_ID><CENTER_NAME>EARTH</CENTER_NAME><REF_FRAME>TEME</REF_FRAME><TIME_SYSTEM>UTC</TIME_SYSTEM><MEAN_ELEMENT_THEORY>SGP4</MEAN_ELEMENT_THEORY></metadata><data><meanElements><EPOCH>2025-04-01T22:17:46.291200</EPOCH><MEAN_MOTION>14.36996701</MEAN_MOTION><ECCENTRICITY>.0002614</ECCENTRICITY><INCLINATION>44.9928</INCLINATION><RA_OF_ASC_NODE>182.3612</RA_OF_ASC_NODE><ARG_OF_PERICENTER>240.7587</ARG_OF_PERICENTER><MEAN_ANOMALY>119.3000</MEAN_ANOMALY></meanElements><tleParameters><EPHEMERIS_TYPE>0</EPHEMERIS_TYPE><CLASSIFICATION_TYPE>U</CLASSIFICATION_TYPE><NORAD_CAT_ID>25416</NORAD_CAT_ID><ELEMENT_SET_NO>999</ELEMENT_SET_NO><REV_AT_EPOCH>39333</REV_AT_EPOCH><BSTAR>.65801E-3</BSTAR><MEAN_MOTION_DOT>.1827E-4</MEAN_MOTION_DOT><MEAN_MOTION_DDOT>0</MEAN_MOTION_DDOT></tleParameters></data></segment></body></omm>
<omm id="CCSDS_OMM_VERS" version="2.0">
<header><CREATION_DATE/><ORIGINATOR/></header><body><segment><metadata><OBJECT_NAME>ORBCOMM FM16</OBJECT_NAME><OBJECT_ID>1998-046E</OBJECT_ID><CENTER_NAME>EARTH</CENTER_NAME><REF_FRAME>TEME</REF_FRAME><TIME_SYSTEM>UTC</TIME_SYSTEM><MEAN_ELEMENT_THEORY>SGP4</MEAN_ELEMENT_THEORY></metadata><data><meanElements><EPOCH>2025-04-01T22:39:28.493856</EPOCH><MEAN_MOTION>14.38611467</MEAN_MOTION><ECCENTRICITY>.0006286</ECCENTRICITY><INCLINATION>44.9923</INCLINATION><RA_OF_ASC_NODE>174.8421</RA_OF_ASC_NODE><ARG_OF_PERICENTER>262.3159</ARG_OF_PERICENTER><MEAN_ANOMALY>97.6976</MEAN_ANOMALY></meanElements><tleParameters><EPHEMERIS_TYPE>0</EPHEMERIS_TYPE><CLASSIFICATION_TYPE>U</CLASSIFICATION_TYPE><NORAD_CAT_ID>25417</NORAD_CAT_ID><ELEMENT_SET_NO>999</ELEMENT_SET_NO><REV_AT_EPOCH>39327</REV_AT_EPOCH><BSTAR>.85106E-3</BSTAR><MEAN_MOTION_DOT>.2489E-4</MEAN_MOTION_DOT><MEAN_MOTION_DDOT>0</MEAN_MOTION_DDOT></tleParameters></data></segment></body></omm>
<omm id="CCSDS_OMM_VERS" version="2.0">
<header><CREATION_DATE/><ORIGINATOR/></header><body><segment><metadata><OBJECT_NAME>ORBCOMM FM15</OBJECT_NAME><OBJECT_ID>1998-046F</OBJECT_ID><CENTER_NAME>EARTH</CENTER_NAME><REF_FRAME>TEME</REF_FRAME><TIME_SYSTEM>UTC</TIME_SYSTEM><MEAN_ELEMENT_THEORY>SGP4</MEAN_ELEMENT_THEORY></metadata><data><meanElements><EPOCH>2025-04-01T23:18:18.131616</EPOCH><MEAN_MOTION>14.38269158</MEAN_MOTION><ECCENTRICITY>.0005794</ECCENTRICITY><INCLINATION>44.9955</INCLINATION><RA_OF_ASC_NODE>179.6332</RA_OF_ASC_NODE><ARG_OF_PERICENTER>261.6637</ARG_OF_PERICENTER><MEAN_ANOMALY>98.3555</MEAN_ANOMALY></meanElements><tleParameters><EPHEMERIS_TYPE>0</EPHEMERIS_TYPE><CLASSIFICATION_TYPE>U</CLASSIFICATION_TYPE><NORAD_CAT_ID>25418</NORAD_CAT_ID><ELEMENT_SET_NO>999</ELEMENT_SET_NO><REV_AT_EPOCH>39344</REV_AT_EPOCH><BSTAR>.76534E-3</BSTAR><MEAN_MOTION_DOT>.2208E-4</MEAN_MOTION_DOT><MEAN_MOTION_DDOT>0</MEAN_MOTION_DDOT></tleParameters></data></segment></body></omm>
<omm id="CCSDS_OMM_VERS" version="2.0">
<header><CREATION_DATE/><ORIGINATOR/></header><body><segment><metadata><OBJECT_NAME>ORBCOMM FM14</OBJECT_NAME><OBJECT_ID>1998-046G</OBJECT_ID><CENTER_NAME>EARTH</CENTER_NAME><REF_FRAME>TEME</REF_FRAME><TIME_SYSTEM>UTC</TIME_SYSTEM><MEAN_ELEMENT_THEORY>SGP4</MEAN_ELEMENT_THEORY></metadata><data><meanElements><EPOCH>2025-04-01T22:30:52.366176</EPOCH><MEAN_MOTION>14.38607306</MEAN_MOTION><ECCENTRICITY>.000484</ECCENTRICITY><INCLINATION>44.9943</INCLINATION><RA_OF_ASC_NODE>178.2405</RA_OF_ASC_NODE><ARG_OF_PERICENTER>254.4317</ARG_OF_PERICENTER><MEAN_ANOMALY>105.5997</MEAN_ANOMALY></meanElements><tleParameters><EPHEMERIS_TYPE>0</EPHEMERIS_TYPE><CLASSIFICATION_TYPE>U</CLASSIFICATION_TYPE><NORAD_CAT_ID>25419</NORAD_CAT_ID><ELEMENT_SET_NO>999</ELEMENT_SET_NO><REV_AT_EPOCH>39345</REV_AT_EPOCH><BSTAR>.75502E-3</BSTAR><MEAN_MOTION_DOT>.2192E-4</MEAN_MOTION_DOT><MEAN_MOTION_DDOT>0</MEAN_MOTION_DDOT></tleParameters></data></segment></body></omm>
<omm id="CCSDS_OMM_VERS" version="2.0">
<header><CREATION_DATE/><ORIGINATOR/></header><body><segment><metadata><OBJECT_NAME>ORBCOMM FM13</OBJECT_NAME><OBJECT_ID>1998-046H</OBJECT_ID><CENTER_NAME>EARTH</CENTER_NAME><REF_FRAME>TEME</REF_FRAME><TIME_SYSTEM>UTC</TIME_SYSTEM><MEAN_ELEMENT_THEORY>SGP4</MEAN_ELEMENT_THEORY></metadata><data><meanElements><EPOCH>2025-04-01T13:41:21.549120</EPOCH><MEAN_MOTION>14.37425561</MEAN_MOTION><ECCENTRICITY>.0006823</ECCENTRICITY><INCLINATION>44.9961</INCLINATION><RA_OF_ASC_NODE>187.2325</RA_OF_ASC_NODE><ARG_OF_PERICENTER>246.6015</ARG_OF_PERICENTER><MEAN_ANOMALY>113.4116</MEAN_ANOMALY></meanElements><tleParameters><EPHEMERIS_TYPE>0</EPHEMERIS_TYPE><CLASSIFICATION_TYPE>U</CLASSIFICATION_TYPE><NORAD_CAT_ID>25420</NORAD_CAT_ID><ELEMENT_SET_NO>999</ELEMENT_SET_NO><REV_AT_EPOCH>39334</REV_AT_EPOCH><BSTAR>.73558E-3</BSTAR><MEAN_MOTION_DOT>.2079E-4</MEAN_MOTION_DOT><MEAN_MOTION_DDOT>0</MEAN_MOTION_DDOT></tleParameters></data></segment></body></omm>
<omm id="CCSDS_OMM_VERS" version="2.0">
<header><CREATION_DATE/><ORIGINATOR/></header><body><segment><metadata><OBJECT_NAME>ORBCOMM FM21</OBJECT_NAME><OBJECT_ID>1998-053A</OBJECT_ID><CENTER_NAME>EARTH</CENTER_NAME><REF_FRAME>TEME</REF_FRAME><TIME_SYSTEM>UTC</TIME_SYSTEM><MEAN_ELEMENT_THEORY>SGP4</MEAN_ELEMENT_THEORY></metadata><data><meanElements><EPOCH>2025-04-01T18:26:53.971872</EPOCH><MEAN_MOTION>14.37134138</MEAN_MOTION><ECCENTRICITY>.0001861</ECCENTRICITY><INCLINATION>45.0073</INCLINATION><RA_OF_ASC_NODE>271.3351</RA_OF_ASC_NODE><ARG_OF_PERICENTER>184.4913</ARG_OF_PERICENTER><MEAN_ANOMALY>175.5919</MEAN_ANOMALY></meanElements><tleParameters><EPHEMERIS_TYPE>0</EPHEMERIS_TYPE><CLASSIFICATION_TYPE>U</CLASSIFICATION_TYPE><NORAD_CAT_ID>25475</NORAD_CAT_ID><ELEMENT_SET_NO>999</ELEMENT_SET_NO><REV_AT_EPOCH>38625</REV_AT_EPOCH><BSTAR>.68112E-3</BSTAR><MEAN_MOTION_DOT>.1902E-4</MEAN_MOTION_DOT><MEAN_MOTION_DDOT>0</MEAN_MOTION_DDOT></tleParameters></data></segment></body></omm>
<omm id="CCSDS_OMM_VERS" version="2.0">
<header><CREATION_DATE/><ORIGINATOR/></header><body><segment><metadata><OBJECT_NAME>ORBCOMM FM22</OBJECT_NAME><OBJECT_ID>1998-053B</OBJECT_ID><CENTER_NAME>EARTH</CENTER_NAME><REF_FRAME>TEME</REF_FRAME><TIME_SYSTEM>UTC</TIME_SYSTEM><MEAN_ELEMENT_THEORY>SGP4</MEAN_ELEMENT_THEORY></metadata><data><meanElements><EPOCH>2025-04-01T18:57:43.375104</EPOCH><MEAN_MOTION>14.38100314</MEAN_MOTION><ECCENTRICITY>.0003774</ECCENTRICITY><INCLINATION>45.0066</INCLINATION><RA_OF_ASC_NODE>266.6867</RA_OF_ASC_NODE><ARG_OF_PERICENTER>191.0680</ARG_OF_PERICENTER><MEAN_ANOMALY>169.0086</MEAN_ANOMALY></meanElements><tleParameters><EPHEMERIS_TYPE>0</EPHEMERIS_TYPE><CLASSIFICATION_TYPE>U</CLASSIFICATION_TYPE><NORAD_CAT_ID>25476</NORAD_CAT_ID><ELEMENT_SET_NO>999</ELEMENT_SET_NO><REV_AT_EPOCH>38627</REV_AT_EPOCH><BSTAR>.81539E-3</BSTAR><MEAN_MOTION_DOT>.2353E-4</MEAN_MOTION_DOT><MEAN_MOTION_DDOT>0</MEAN_MOTION_DDOT></tleParameters></data></segment></body></omm>
<omm id="CCSDS_OMM_VERS" version="2.0">
<header><CREATION_DATE/><ORIGINATOR/></header><body><segment><metadata><OBJECT_NAME>ORBCOMM FM23</OBJECT_NAME><OBJECT_ID>1998-053C</OBJECT_ID><CENTER_NAME>EARTH</CENTER_NAME><REF_FRAME>TEME</REF_FRAME><TIME_SYSTEM>UTC</TIME_SYSTEM><MEAN_ELEMENT_THEORY>SGP4</MEAN_ELEMENT_THEORY></metadata><data><meanElements><EPOCH>2025-04-01T18:41:06.223200</EPOCH><MEAN_MOTION>14.37286760</MEAN_MOTION><ECCENTRICITY>.0002842</ECCENTRICITY><INCLINATION>45.0075</INCLINATION><RA_OF_ASC_NODE>273.5134</RA_OF_ASC_NODE><ARG_OF_PERICENTER>185.5157</ARG_OF_PERICENTER><MEAN_ANOMALY>174.5660</MEAN_ANOMALY></meanElements><tleParameters><EPHEMERIS_TYPE>0</EPHEMERIS_TYPE><CLASSIFICATION_TYPE>U</CLASSIFICATION_TYPE><NORAD_CAT_ID>25477</NORAD_CAT_ID><ELEMENT_SET_NO>999</ELEMENT_SET_NO><REV_AT_EPOCH>38640</REV_AT_EPOCH><BSTAR>.72166E-3</BSTAR><MEAN_MOTION_DOT>.203E-4</MEAN_MOTION_DOT><MEAN_MOTION_DDOT>0</MEAN_MOTION_DDOT></tleParameters></data></segment></body></omm>

</ndm>
