ORBCOMM FM20            
1 25416U 98046D   25091.92900800  .00001827  00000+0  65801-3 0  9990
2 25416  44.9928 182.3612 0002614 240.7587 119.3000 14.36996701393336
ORBCOMM FM16            
1 25417U 98046E   25091.94407979  .00002489  00000+0  85106-3 0  9997
2 25417  44.9923 174.8421 0006286 262.3159  97.6976 14.38611467393278
ORBCOMM FM15            
1 25418U 98046F   25091.97104319  .00002208  00000+0  76534-3 0  9997
2 25418  44.9955 179.6332 0005794 261.6637  98.3555 14.38269158393440
ORBCOMM FM14            
1 25419U 98046G   25091.93810609  .00002192  00000+0  75502-3 0  9996
2 25419  44.9943 178.2405 0004840 254.4317 105.5997 14.38607306393453
ORBCOMM FM13            
1 25420U 98046H   25091.57038830  .00002079  00000+0  73558-3 0  9999
2 25420  44.9961 187.2325 0006823 246.6015 113.4116 14.37425561393346
ORBCOMM FM21            
1 25475U 98053A   25091.76868023  .00001902  00000+0  68112-3 0  9997
2 25475  45.0073 271.3351 0001861 184.4913 175.5919 14.37134138386258
ORBCOMM FM22            
1 25476U 98053B   25091.79008536  .00002353  00000+0  81539-3 0  9995
2 25476  45.0066 266.6867 0003774 191.0680 169.0086 14.38100314386275
ORBCOMM FM23            
1 25477U 98053C   25091.77854425  .00002030  00000+0  72166-3 0  9998
2 25477  45.0075 273.5134 0002842 185.5157 174.5660 14.37286760386405
